IRIDIUM 166             
1 43570U 18061B   23341.32730045  .00000357  00000+0  12053-3 0  9990
2 43570  86.3971  82.4310 0002481  97.3435 262.8042 14.34215718281123
IRIDIUM 158             
1 43571U 18061C   23340.38859351  .00000467  00000+0  15957-3 0  9996
2 43571  86.3967  82.8318 0002183  87.2668 272.8778 14.34216464280952
IRIDIUM 165             
1 43572U 18061D   23340.34419585  .00000362  00000+0  12227-3 0  9995
2 43572  86.3959  82.8778 0003171 103.0347 257.1203 14.34218134280970
IRIDIUM 155             
1 43573U 18061E   23340.37589948  .00000473  00000+0  16185-3 0  9990
2 43573  86.3964  82.7806 0002219 100.2830 259.8616 14.34212749280946
IRIDIUM 154             
1 43574U 18061F   23341.33363974  .00000358  00000+0  12083-3 0  9992
2 43574  86.3969  82.4689 0002436 107.8549 252.2912 14.34212732281139
IRIDIUM 163             
1 43575U 18061G   23341.38437733  .00000353  00000+0  11884-3 0  9996
2 43575  86.3967  82.3918 0001985  97.9281 262.2140 14.34217986281110
IRIDIUM 156             
1 43576U 18061H   23340.38225304  .00000509  00000+0  17455-3 0  9998
2 43576  86.3967  82.8166 0002255  91.8335 268.3119 14.34216900280965
IRIDIUM 164             
1 43577U 18061J   23341.20042852  .00000542  00000+0  18644-3 0  9994
2 43577  86.3972  82.5013 0002099  89.3959 270.7477 14.34212750281122
